{"type": "FeatureCollection", "features": [ {"type": "Feature", "properties": {"norad_id": 66757, "name": "TRANSPORTER-15CV", "group": "last-30-days", "lat": -10.561175577211223, "lon": -110.52993029087773, "alt_km": 514.8586160651057, "timestamp": "2025-12-25T07:00:32.763767+00:00", "meta": {"OBJECT_NAME": "TRANSPORTER-15CV", "OBJECT_ID": "2025-276CV", "EPOCH": "2025-12-24T20:40:51.451104", "MEAN_MOTION": 15.18100466, "ECCENTRICITY": 0.00018878, "INCLINATION": 97.4419, "RA_OF_ASC_NODE": 70.4433, "ARG_OF_PERICENTER": 155.199, "MEAN_ANOMALY": 204.9335, "EPHEMERIS_TYPE": 0, "CLASSIFICATION_TYPE": "U", "NORAD_CAT_ID": 66757, "ELEMENT_SET_NO": 999, "REV_AT_EPOCH": 396, "BSTAR": 0.00059639157, "MEAN_MOTION_DOT": 0.00012105, "MEAN_MOTION_DDOT": 0}, "tle": {"line1": "1 66757U 25276CV  25358.86170661  .00012105  00000+0  59639-3 0  9994", "line2": "2 66757  97.4419  70.4433 0001887 155.1990 204.9335 15.18100466  3968"}}, "geometry": {"type": "Point", "coordinates": [-110.52993029087773, -10.561175577211223]}}, {"type": "Feature", "properties": {"norad_id": 66758, "name": "TRANSPORTER-15CW", "group": "last-30-days", "lat": -12.074687997313086, "lon": -110.74541541952725, "alt_km": 515.5248767329158, "timestamp": "2025-12-25T07:00:32.763780+00:00", "meta": {"OBJECT_NAME": "TRANSPORTER-15CW", "OBJECT_ID": "2025-276CW", "EPOCH": "2025-12-24T20:40:27.365376", "MEAN_MOTION": 15.18101417, "ECCENTRICITY": 0.00014825, "INCLINATION": 97.4389, "RA_OF_ASC_NODE": 70.4329, "ARG_OF_PERICENTER": 135.3497, "MEAN_ANOMALY": 224.7857, "EPHEMERIS_TYPE": 0, "CLASSIFICATION_TYPE": "U", "NORAD_CAT_ID": 66758, "ELEMENT_SET_NO": 999, "REV_AT_EPOCH": 396, "BSTAR": 0.00051141528, "MEAN_MOTION_DOT": 0.00010369, "MEAN_MOTION_DDOT": 0}, "tle": {"line1": "1 66758U 25276CW  25358.86142784  .00010369  00000+0  51142-3 0  9991", "line2": "2 66758  97.4389  70.4329 0001482 135.3497 224.7857 15.18101417  3968"}}, "geometry": {"type": "Point", "coordinates": [-110.74541541952725, -12.074687997313086]}}, {"type": "Feature", "properties": {"norad_id": 66759, "name": "TRANSPORTER-15CX", "group": "last-30-days", "lat": -21.15659897829518, "lon": -112.04081825372526, "alt_km": 517.9061922123346, "timestamp": "2025-12-25T07:00:32.763790+00:00", "meta": {"OBJECT_NAME": "TRANSPORTER-15CX", "OBJECT_ID": "2025-276CX", "EPOCH": "2025-12-24T20:37:55.476768", "MEAN_MOTION": 15.17895169, "ECCENTRICITY": 0.00036662, "INCLINATION": 97.4379, "RA_OF_ASC_NODE": 70.4324, "ARG_OF_PERICENTER": 119.3095, "MEAN_ANOMALY": 240.8506, "EPHEMERIS_TYPE": 0, "CLASSIFICATION_TYPE": "U", "NORAD_CAT_ID": 66759, "ELEMENT_SET_NO": 999, "REV_AT_EPOCH": 396, "BSTAR": -0.011463311, "MEAN_MOTION_DOT": -0.00225304, "MEAN_MOTION_DDOT": 0}, "tle": {"line1": "1 66759U 25276CX  25358.85966987 -.00225304  00000+0 -11463-1 0  9999", "line2": "2 66759  97.4379  70.4324 0003666 119.3095 240.8506 15.17895169  3968"}}, "geometry": {"type": "Point", "coordinates": [-112.04081825372526, -21.15659897829518]}}, {"type": "Feature", "properties": {"norad_id": 66760, "name": "TRANSPORTER-15CY", "group": "last-30-days", "lat": -24.005973020038947, "lon": -112.47318132775372, "alt_km": 516.8791045146754, "timestamp": "2025-12-25T07:00:32.763800+00:00", "meta": {"OBJECT_NAME": "TRANSPORTER-15CY", "OBJECT_ID": "2025-276CY", "EPOCH": "2025-12-24T20:37:19.751232", "MEAN_MOTION": 15.18215472, "ECCENTRICITY": 0.00017909, "INCLINATION": 97.4395, "RA_OF_ASC_NODE": 70.4374, "ARG_OF_PERICENTER": 112.4227, "MEAN_ANOMALY": 247.7197, "EPHEMERIS_TYPE": 0, "CLASSIFICATION_TYPE": "U", "NORAD_CAT_ID": 66760, "ELEMENT_SET_NO": 999, "REV_AT_EPOCH": 396, "BSTAR": 0.00048439288, "MEAN_MOTION_DOT": 9.849e-05, "MEAN_MOTION_DDOT": 0}, "tle": {"line1": "1 66760U 25276CY  25358.85925638  .00009849  00000+0  48439-3 0  9996", "line2": "2 66760  97.4395  70.4374 0001790 112.4227 247.7197 15.18215472  3966"}}, "geometry": {"type": "Point", "coordinates": [-112.47318132775372, -24.005973020038947]}}, {"type": "Feature", "properties": {"norad_id": 66761, "name": "TRANSPORTER-15CZ", "group": "last-30-days", "lat": -40.151043711108336, "lon": -115.4587461576677, "alt_km": 517.0916534931148, "timestamp": "2025-12-25T07:00:32.763811+00:00", "meta": {"OBJECT_NAME": "TRANSPORTER-15CZ", "OBJECT_ID": "2025-276CZ", "EPOCH": "2025-12-24T20:33:08.433504", "MEAN_MOTION": 15.18516199, "ECCENTRICITY": 0.00017581, "INCLINATION": 97.4393, "RA_OF_ASC_NODE": 70.4412, "ARG_OF_PERICENTER": 121.9375, "MEAN_ANOMALY": 238.203, "EPHEMERIS_TYPE": 0, "CLASSIFICATION_TYPE": "U", "NORAD_CAT_ID": 66761, "ELEMENT_SET_NO": 999, "REV_AT_EPOCH": 396, "BSTAR": 0.00053578987, "MEAN_MOTION_DOT": 0.00010998, "MEAN_MOTION_DDOT": 0}, "tle": {"line1": "1 66761U 25276CZ  25358.85634761  .00010998  00000+0  53579-3 0  9999", "line2": "2 66761  97.4393  70.4412 0001758 121.9375 238.2030 15.18516199  3962"}}, "geometry": {"type": "Point", "coordinates": [-115.4587461576677, -40.151043711108336]}}, {"type": "Feature", "properties": {"norad_id": 66762, "name": "HYDROGNSS-1", "group": "last-30-days", "lat": 55.36735858881235, "lon": -98.26098662166184, "alt_km": 509.01743752665425, "timestamp": "2025-12-25T07:00:32.763821+00:00", "meta": {"OBJECT_NAME": "HYDROGNSS-1", "OBJECT_ID": "2025-276DA", "EPOCH": "2025-12-24T20:58:06.839328", "MEAN_MOTION": 15.17319152, "ECCENTRICITY": 9.694e-05, "INCLINATION": 97.4405, "RA_OF_ASC_NODE": 70.4214, "ARG_OF_PERICENTER": 244.1393, "MEAN_ANOMALY": 115.974, "EPHEMERIS_TYPE": 0, "CLASSIFICATION_TYPE": "U", "NORAD_CAT_ID": 66762, "ELEMENT_SET_NO": 999, "REV_AT_EPOCH": 396, "BSTAR": 0.00044682772, "MEAN_MOTION_DOT": 8.847e-05, "MEAN_MOTION_DDOT": 0}, "tle": {"line1": "1 66762U 25276DA  25358.87369027  .00008847  00000+0  44683-3 0  9998", "line2": "2 66762  97.4405  70.4214 0000969 244.1393 115.9740 15.17319152  3966"}}, "geometry": {"type": "Point", "coordinates": [-98.26098662166184, 55.36735858881235]}}, {"type": "Feature", "properties": {"norad_id": 66763, "name": "HYDROGNSS-2", "group": "last-30-days", "lat": 43.47882141849495, "lon": -102.03909699401386, "alt_km": 509.988916073391, "timestamp": "2025-12-25T07:00:32.763834+00:00", "meta": {"OBJECT_NAME": "HYDROGNSS-2", "OBJECT_ID": "2025-276DB", "EPOCH": "2025-12-24T19:20:00.313152", "MEAN_MOTION": 15.17440251, "ECCENTRICITY": 0.00015785, "INCLINATION": 97.4409, "RA_OF_ASC_NODE": 70.3639, "ARG_OF_PERICENTER": 227.3073, "MEAN_ANOMALY": 132.8028, "EPHEMERIS_TYPE": 0, "CLASSIFICATION_TYPE": "U", "NORAD_CAT_ID": 66763, "ELEMENT_SET_NO": 999, "REV_AT_EPOCH": 395, "BSTAR": 0.00021084987, "MEAN_MOTION_DOT": 4.152e-05, "MEAN_MOTION_DDOT": 0}, "tle": {"line1": "1 66763U 25276DB  25358.80555918  .00004152  00000+0  21085-3 0  9994", "line2": "2 66763  97.4409  70.3639 0001578 227.3073 132.8028 15.17440251  3957"}}, "geometry": {"type": "Point", "coordinates": [-102.03909699401386, 43.47882141849495]}}, {"type": "Feature", "properties": {"norad_id": 66764, "name": "TRANSPORTER-15DC", "group": "last-30-days", "lat": 17.532188984144664, "lon": -106.78686562402156, "alt_km": 511.91188632342437, "timestamp": "2025-12-25T07:00:32.763844+00:00", "meta": {"OBJECT_NAME": "TRANSPORTER-15DC", "OBJECT_ID": "2025-276DC", "EPOCH": "2025-12-24T20:48:09.499104", "MEAN_MOTION": 15.17707246, "ECCENTRICITY": 0.00021635, "INCLINATION": 97.4403, "RA_OF_ASC_NODE": 70.4291, "ARG_OF_PERICENTER": 185.8635, "MEAN_ANOMALY": 174.2574, "EPHEMERIS_TYPE": 0, "CLASSIFICATION_TYPE": "U", "NORAD_CAT_ID": 66764, "ELEMENT_SET_NO": 999, "REV_AT_EPOCH": 396, "BSTAR": 0.00042737397, "MEAN_MOTION_DOT": 8.554e-05, "MEAN_MOTION_DDOT": 0}, "tle": {"line1": "1 66764U 25276DC  25358.86677661  .00008554  00000+0  42737-3 0  9998", "line2": "2 66764  97.4403  70.4291 0002163 185.8635 174.2574 15.17707246  3967"}}, "geometry": {"type": "Point", "coordinates": [-106.78686562402156, 17.532188984144664]}}, {"type": "Feature", "properties": {"norad_id": 66765, "name": "TRANSPORTER-15DD", "group": "last-30-days", "lat": -60.22474972791947, "lon": -122.32003995478999, "alt_km": 517.4899947439617, "timestamp": "2025-12-25T07:00:32.763856+00:00", "meta": {"OBJECT_NAME": "TRANSPORTER-15DD", "OBJECT_ID": "2025-276DD", "EPOCH": "2025-12-24T22:02:42.323424", "MEAN_MOTION": 15.18780908, "ECCENTRICITY": 0.00020153, "INCLINATION": 97.4417, "RA_OF_ASC_NODE": 70.5186, "ARG_OF_PERICENTER": 116.2471, "MEAN_ANOMALY": 243.8971, "EPHEMERIS_TYPE": 0, "CLASSIFICATION_TYPE": "U", "NORAD_CAT_ID": 66765, "ELEMENT_SET_NO": 999, "REV_AT_EPOCH": 397, "BSTAR": 0.00064423093, "MEAN_MOTION_DOT": 0.00013343, "MEAN_MOTION_DDOT": 0}, "tle": {"line1": "1 66765U 25276DD  25358.91854541  .00013343  00000+0  64423-3 0  9997", "line2": "2 66765  97.4417  70.5186 0002015 116.2471 243.8971 15.18780908  3971"}}, "geometry": {"type": "Point", "coordinates": [-122.32003995478999, -60.22474972791947]}}, {"type": "Feature", "properties": {"norad_id": 66766, "name": "TRANSPORTER-15DE", "group": "last-30-days", "lat": -42.76755373790989, "lon": -116.07916747610402, "alt_km": 518.2762168652907, "timestamp": "2025-12-25T07:00:32.763868+00:00", "meta": {"OBJECT_NAME": "TRANSPORTER-15DE", "OBJECT_ID": "2025-276DE", "EPOCH": "2025-12-24T22:07:18.030144", "MEAN_MOTION": 15.18435221, "ECCENTRICITY": 0.00020379, "INCLINATION": 97.4358, "RA_OF_ASC_NODE": 70.4952, "ARG_OF_PERICENTER": 87.4931, "MEAN_ANOMALY": 272.6537, "EPHEMERIS_TYPE": 0, "CLASSIFICATION_TYPE": "U", "NORAD_CAT_ID": 66766, "ELEMENT_SET_NO": 999, "REV_AT_EPOCH": 397, "BSTAR": 0.00034589953, "MEAN_MOTION_DOT": 7.056e-05, "MEAN_MOTION_DDOT": 0}, "tle": {"line1": "1 66766U 25276DE  25358.92173646  .00007056  00000+0  34590-3 0  9995", "line2": "2 66766  97.4358  70.4952 0002037  87.4931 272.6537 15.18435221  3973"}}, "geometry": {"type": "Point", "coordinates": [-116.07916747610402, -42.76755373790989]}}]}